{"type":"FeatureCollection","features":[{"type":"Feature","name":"ShapeMeta","geometry":{"type":"LineString","coordinates":[[4.349697,50.86569],[4.349715,50.86568]]},"properties":{"highway":"footway","profile":"pedestrian.shortcut","distance":"1.416342","time":"1.274708"}},{"type":"Feature","name":"ShapeMeta","geometry":{"type":"LineString","coordinates":[[4.349715,50.86568],[4.349894,50.86563]]},"properties":{"highway":"footway","profile":"pedestrian.shortcut","distance":"15.41634","time":"13.87471"}},{"type":"Feature","name":"ShapeMeta","geometry":{"type":"LineString","coordinates":[[4.349894,50.86563],[4.350178,50.86554],[4.35034,50.86548]]},"properties":{"highway":"footway","profile":"pedestrian.shortcut","distance":"50.61634","time":"45.55471"}},{"type":"Feature","name":"ShapeMeta","geometry":{"type":"LineString","coordinates":[[4.35034,50.86548],[4.350401,50.86541]]},"properties":{"oneway":"yes","highway":"service","profile":"pedestrian.shortcut","distance":"60.01634","time":"54.01471"}},{"type":"Feature","name":"ShapeMeta","geometry":{"type":"LineString","coordinates":[[4.350401,50.86541],[4.35049,50.86539]]},"properties":{"highway":"service","profile":"pedestrian.shortcut","distance":"66.41634","time":"59.77471"}},{"type":"Feature","name":"ShapeMeta","geometry":{"type":"LineString","coordinates":[[4.35049,50.86539],[4.34936,50.86397]]},"properties":{"highway":"cycleway","profile":"pedestrian.shortcut","distance":"243.3163","time":"218.9847"}},{"type":"Feature","name":"ShapeMeta","geometry":{"type":"LineString","coordinates":[[4.34936,50.86397],[4.348508,50.86287]]},"properties":{"highway":"cycleway","profile":"pedestrian.shortcut","distance":"379.6163","time":"341.6547"}},{"type":"Feature","name":"ShapeMeta","geometry":{"type":"LineString","coordinates":[[4.348508,50.86287],[4.348402,50.86272]]},"properties":{"highway":"cycleway","profile":"pedestrian.shortcut","distance":"396.9163","time":"357.2247"}},{"type":"Feature","name":"ShapeMeta","geometry":{"type":"LineString","coordinates":[[4.348402,50.86272],[4.347211,50.86105]]},"properties":{"highway":"cycleway","profile":"pedestrian.shortcut","distance":"600.6163","time":"540.5547"}},{"type":"Feature","name":"ShapeMeta","geometry":{"type":"LineString","coordinates":[[4.347211,50.86105],[4.347279,50.86102]]},"properties":{"name":"Rue Van Meyel - Van Meyelstraat","highway":"residential","oneway":"yes","oneway:bicycle":"no","profile":"pedestrian.shortcut","distance":"606.6163","time":"545.9547"}},{"type":"Feature","name":"ShapeMeta","geometry":{"type":"LineString","coordinates":[[4.347279,50.86102],[4.347167,50.8609]]},"properties":{"maxspeed":"50","name":"Avenue du Port - Havenlaan","highway":"tertiary","profile":"pedestrian.shortcut","distance":"621.5163","time":"559.3647"}},{"type":"Feature","name":"ShapeMeta","geometry":{"type":"LineString","coordinates":[[4.347167,50.8609],[4.346588,50.86029]]},"properties":{"maxspeed":"50","name":"Avenue du Port - Havenlaan","highway":"tertiary","bicycle":"no","profile":"pedestrian.shortcut","distance":"700.9163","time":"630.8247"}},{"type":"Feature","name":"ShapeMeta","geometry":{"type":"LineString","coordinates":[[4.346588,50.86029],[4.345796,50.85946]]},"properties":{"maxspeed":"50","name":"Avenue du Port - Havenlaan","highway":"tertiary","bicycle":"no","profile":"pedestrian.shortcut","distance":"808.7163","time":"727.8447"}},{"type":"Feature","name":"ShapeMeta","geometry":{"type":"LineString","coordinates":[[4.345796,50.85946],[4.345845,50.8592],[4.34584,50.85917]]},"properties":{"maxspeed":"50","name":"Place Sainctelette - Saincteletteplaats","cyclenetwork":"yes","highway":"tertiary","profile":"pedestrian.shortcut","distance":"841.5163","time":"757.3647"}},{"type":"Feature","name":"ShapeMeta","geometry":{"type":"LineString","coordinates":[[4.34584,50.85917],[4.345807,50.85911]]},"properties":{"maxspeed":"50","name":"Place Sainctelette - Saincteletteplaats","cyclenetwork":"yes","highway":"tertiary","profile":"pedestrian.shortcut","distance":"847.8163","time":"763.0347"}},{"type":"Feature","name":"ShapeMeta","geometry":{"type":"LineString","coordinates":[[4.345807,50.85911],[4.345755,50.85904]]},"properties":{"maxspeed":"50","name":"Place Sainctelette - Saincteletteplaats","cyclenetwork":"yes","highway":"tertiary","profile":"pedestrian.shortcut","distance":"857.0163","time":"771.3148"}},{"type":"Feature","name":"ShapeMeta","geometry":{"type":"LineString","coordinates":[[4.345755,50.85904],[4.345576,50.85873]]},"properties":{"maxspeed":"50","name":"Place Sainctelette - Saincteletteplaats","cyclenetwork":"yes","highway":"tertiary","profile":"pedestrian.shortcut","distance":"893.5163","time":"804.1648"}},{"type":"Feature","name":"ShapeMeta","geometry":{"type":"LineString","coordinates":[[4.345576,50.85873],[4.345528,50.85867],[4.345499,50.85863]]},"properties":{"name":"Place Sainctelette - Saincteletteplaats","highway":"residential","cyclenetwork":"yes","profile":"pedestrian.shortcut","distance":"905.7163","time":"815.1448"}},{"type":"Feature","name":"ShapeMeta","geometry":{"type":"LineString","coordinates":[[4.345499,50.85863],[4.34555,50.85853],[4.3456,50.85841]]},"properties":{"oneway":"yes","name":"Quai des Charbonnages - Koolmijnenkaai","highway":"residential","bicycle":"no","profile":"pedestrian.shortcut","distance":"931.3163","time":"838.1848"}},{"type":"Feature","name":"ShapeMeta","geometry":{"type":"LineString","coordinates":[[4.3456,50.85841],[4.345627,50.85834],[4.345333,50.85801],[4.343659,50.85625],[4.343596,50.85619]]},"properties":{"oneway":"yes","name":"Quai des Charbonnages - Koolmijnenkaai","highway":"residential","bicycle":"no","profile":"pedestrian.shortcut","distance":"1217.716","time":"1095.945"}},{"type":"Feature","name":"ShapeMeta","geometry":{"type":"LineString","coordinates":[[4.343596,50.85619],[4.342837,50.85538]]},"properties":{"oneway":"yes","name":"Quai des Charbonnages - Koolmijnenkaai","highway":"residential","bicycle":"no","profile":"pedestrian.shortcut","distance":"1321.816","time":"1189.635"}},{"type":"Feature","name":"ShapeMeta","geometry":{"type":"LineString","coordinates":[[4.342837,50.85538],[4.342901,50.85535]]},"properties":{"cyclenetwork":"yes","highway":"tertiary","profile":"pedestrian.shortcut","distance":"1327.316","time":"1194.585"}},{"type":"Feature","name":"ShapeMeta","geometry":{"type":"LineString","coordinates":[[4.342901,50.85535],[4.342929,50.85534],[4.34295,50.85533]]},"properties":{"cyclenetwork":"yes","highway":"tertiary","profile":"pedestrian.shortcut","distance":"1331.416","time":"1198.275"}},{"type":"Feature","name":"ShapeMeta","geometry":{"type":"LineString","coordinates":[[4.34295,50.85533],[4.343234,50.85522]]},"properties":{"cycleway":"lane","bridge":"yes","cyclenetwork":"yes","highway":"tertiary","profile":"pedestrian.shortcut","distance":"1354.716","time":"1219.245"}},{"type":"Feature","name":"ShapeMeta","geometry":{"type":"LineString","coordinates":[[4.343234,50.85522],[4.343246,50.85522]]},"properties":{"maxspeed":"50","cyclenetwork":"yes","highway":"tertiary","profile":"pedestrian.shortcut","distance":"1355.616","time":"1220.055"}},{"type":"Feature","name":"ShapeMeta","geometry":{"type":"LineString","coordinates":[[4.343246,50.85522],[4.34321,50.85518],[4.342183,50.8541]]},"properties":{"name":"Boulevard de Nieuport - Nieuwpoortlaan","highway":"pedestrian","profile":"pedestrian.shortcut","distance":"1500.516","time":"1350.465"}},{"type":"Feature","name":"ShapeMeta","geometry":{"type":"LineString","coordinates":[[4.342183,50.8541],[4.342149,50.85406],[4.341745,50.85363]]},"properties":{"name":"Boulevard de Nieuport - Nieuwpoortlaan","highway":"pedestrian","profile":"pedestrian.shortcut","distance":"1560.616","time":"1404.555"}},{"type":"Feature","name":"ShapeMeta","geometry":{"type":"LineString","coordinates":[[4.341745,50.85363],[4.341757,50.85363],[4.341812,50.85361],[4.341843,50.8536]]},"properties":{"highway":"footway","profile":"pedestrian.shortcut","distance":"1568.616","time":"1411.755"}},{"type":"Feature","name":"ShapeMeta","geometry":{"type":"LineString","coordinates":[[4.341843,50.8536],[4.341644,50.85339],[4.34159,50.85334],[4.341462,50.85319]]},"properties":{"highway":"footway","profile":"pedestrian.shortcut","distance":"1621.316","time":"1459.185"}},{"type":"Feature","name":"ShapeMeta","geometry":{"type":"LineString","coordinates":[[4.341462,50.85319],[4.341538,50.85316]]},"properties":{"highway":"footway","profile":"pedestrian.shortcut","distance":"1627.416","time":"1464.675"}},{"type":"Feature","name":"ShapeMeta","geometry":{"type":"LineString","coordinates":[[4.341538,50.85316],[4.341465,50.85309]]},"properties":{"maxspeed":"50","name":"Boulevard de Nieuport - Nieuwpoortlaan","highway":"primary","profile":"pedestrian.shortcut","distance":"1636.916","time":"1473.225"}},{"type":"Feature","name":"ShapeMeta","geometry":{"type":"LineString","coordinates":[[4.341465,50.85309],[4.341322,50.85293]]},"properties":{"maxspeed":"50","name":"Boulevard Barthélémy - Barthelemylaan","highway":"primary","profile":"pedestrian.shortcut","distance":"1656.916","time":"1491.225"}},{"type":"Feature","name":"ShapeMeta","geometry":{"type":"LineString","coordinates":[[4.341322,50.85293],[4.34055,50.85209],[4.34009,50.85163]]},"properties":{"maxspeed":"50","name":"Boulevard Barthélémy - Barthelemylaan","highway":"primary","profile":"pedestrian.shortcut","distance":"1825.816","time":"1643.235"}},{"type":"Feature","name":"ShapeMeta","geometry":{"type":"LineString","coordinates":[[4.34009,50.85163],[4.340026,50.85155]]},"properties":{"maxspeed":"50","name":"Boulevard Barthélémy - Barthelemylaan","highway":"primary","profile":"pedestrian.shortcut","distance":"1835.016","time":"1651.515"}},{"type":"Feature","name":"ShapeMeta","geometry":{"type":"LineString","coordinates":[[4.340026,50.85155],[4.339729,50.85122],[4.339174,50.85062]]},"properties":{"maxspeed":"50","name":"Boulevard Barthélémy - Barthelemylaan","highway":"primary","profile":"pedestrian.shortcut","distance":"1955.216","time":"1759.695"}},{"type":"Feature","name":"ShapeMeta","geometry":{"type":"LineString","coordinates":[[4.339174,50.85062],[4.339108,50.85055],[4.339033,50.85049]]},"properties":{"maxspeed":"50","name":"Boulevard Barthélémy - Barthelemylaan","highway":"primary","profile":"pedestrian.shortcut","distance":"1972.716","time":"1775.445"}},{"type":"Feature","name":"ShapeMeta","geometry":{"type":"LineString","coordinates":[[4.339033,50.85049],[4.338636,50.85024]]},"properties":{"maxspeed":"50","name":"Boulevard de l'Abattoir - Slachthuislaan","highway":"primary","profile":"pedestrian.shortcut","distance":"2011.816","time":"1810.635"}},{"type":"Feature","name":"ShapeMeta","geometry":{"type":"LineString","coordinates":[[4.338636,50.85024],[4.338607,50.85022]]},"properties":{"maxspeed":"50","name":"Boulevard de l'Abattoir - Slachthuislaan","highway":"primary","profile":"pedestrian.shortcut","distance":"2014.716","time":"1813.245"}},{"type":"Feature","name":"ShapeMeta","geometry":{"type":"LineString","coordinates":[[4.338607,50.85022],[4.338249,50.84991],[4.338136,50.84979],[4.338017,50.84962],[4.337932,50.84947]]},"properties":{"maxspeed":"50","name":"Boulevard de l'Abattoir - Slachthuislaan","highway":"primary","oneway":"yes","profile":"pedestrian.shortcut","distance":"2111.016","time":"1899.915"}},{"type":"Feature","name":"ShapeMeta","geometry":{"type":"LineString","coordinates":[[4.337932,50.84947],[4.337856,50.84934]]},"properties":{"maxspeed":"50","name":"Boulevard de l'Abattoir - Slachthuislaan","highway":"primary","oneway":"yes","profile":"pedestrian.shortcut","distance":"2126.316","time":"1913.685"}},{"type":"Feature","name":"ShapeMeta","geometry":{"type":"LineString","coordinates":[[4.337856,50.84934],[4.337789,50.8492],[4.337716,50.849],[4.337682,50.84883],[4.337702,50.84851],[4.337757,50.84831],[4.338031,50.84781],[4.338104,50.84769]]},"properties":{"maxspeed":"50","name":"Boulevard de l'Abattoir - Slachthuislaan","highway":"primary","oneway":"yes","profile":"pedestrian.shortcut","distance":"2316.316","time":"2084.685"}},{"type":"Feature","name":"ShapeMeta","geometry":{"type":"LineString","coordinates":[[4.338104,50.84769],[4.338201,50.84742],[4.338253,50.84738]]},"properties":{"maxspeed":"50","cycleway":"lane","name":"Boulevard de l'Abattoir - Slachthuislaan","highway":"primary","oneway":"yes","cyclenetwork":"yes","profile":"pedestrian.shortcut","distance":"2352.616","time":"2117.355"}},{"type":"Feature","name":"ShapeMeta","geometry":{"type":"LineString","coordinates":[[4.338253,50.84738],[4.338388,50.8471]]},"properties":{"maxspeed":"50","cycleway":"lane","name":"Boulevard de l'Abattoir - Slachthuislaan","highway":"primary","oneway":"yes","cyclenetwork":"yes","profile":"pedestrian.shortcut","distance":"2384.516","time":"2146.065"}},{"type":"Feature","name":"ShapeMeta","geometry":{"type":"LineString","coordinates":[[4.338388,50.8471],[4.338538,50.84666]]},"properties":{"maxspeed":"50","cycleway":"lane","name":"Boulevard de l'Abattoir - Slachthuislaan","highway":"primary","oneway":"yes","cyclenetwork":"yes","profile":"pedestrian.shortcut","distance":"2434.316","time":"2190.885"}},{"type":"Feature","name":"ShapeMeta","geometry":{"type":"LineString","coordinates":[[4.338538,50.84666],[4.33877,50.84589],[4.338946,50.84548]]},"properties":{"maxspeed":"50","cycleway":"lane","name":"Boulevard de l'Abattoir - Slachthuislaan","highway":"primary","oneway":"yes","profile":"pedestrian.shortcut","distance":"2568.916","time":"2312.025"}},{"type":"Feature","name":"ShapeMeta","geometry":{"type":"LineString","coordinates":[[4.338946,50.84548],[4.339091,50.84507]]},"properties":{"maxspeed":"50","cycleway":"lane","name":"Boulevard de l'Abattoir - Slachthuislaan","highway":"primary","oneway":"yes","profile":"pedestrian.shortcut","distance":"2615.816","time":"2354.235"}},{"type":"Feature","name":"ShapeMeta","geometry":{"type":"LineString","coordinates":[[4.339091,50.84507],[4.339147,50.84491]]},"properties":{"maxspeed":"50","cycleway":"lane","name":"Boulevard de l'Abattoir - Slachthuislaan","highway":"primary","oneway":"yes","profile":"pedestrian.shortcut","distance":"2633.616","time":"2370.255"}},{"type":"Feature","name":"ShapeMeta","geometry":{"type":"LineString","coordinates":[[4.339147,50.84491],[4.339203,50.84475]]},"properties":{"maxspeed":"50","name":"Boulevard du Midi - Zuidlaan","highway":"primary","oneway":"yes","profile":"pedestrian.shortcut","distance":"2651.816","time":"2386.635"}},{"type":"Feature","name":"ShapeMeta","geometry":{"type":"LineString","coordinates":[[4.339203,50.84475],[4.339365,50.84432],[4.339389,50.84426]]},"properties":{"maxspeed":"50","name":"Boulevard du Midi - Zuidlaan","highway":"primary","oneway":"yes","profile":"pedestrian.shortcut","distance":"2708.416","time":"2437.575"}},{"type":"Feature","name":"ShapeMeta","geometry":{"type":"LineString","coordinates":[[4.339389,50.84426],[4.339413,50.84419],[4.3396,50.84364],[4.339721,50.8433]]},"properties":{"maxspeed":"50","name":"Boulevard du Midi - Zuidlaan","highway":"primary","oneway":"yes","profile":"pedestrian.shortcut","distance":"2816.916","time":"2535.225"}},{"type":"Feature","name":"ShapeMeta","geometry":{"type":"LineString","coordinates":[[4.339721,50.8433],[4.339763,50.84319]]},"properties":{"maxspeed":"50","name":"Boulevard du Midi - Zuidlaan","highway":"primary","oneway":"yes","profile":"pedestrian.shortcut","distance":"2829.516","time":"2546.565"}},{"type":"Feature","name":"ShapeMeta","geometry":{"type":"LineString","coordinates":[[4.339763,50.84319],[4.33986,50.84292]]},"properties":{"maxspeed":"50","name":"Boulevard du Midi - Zuidlaan","highway":"primary","oneway":"yes","cyclenetwork":"yes","profile":"pedestrian.shortcut","distance":"2860.316","time":"2574.285"}},{"type":"Feature","name":"ShapeMeta","geometry":{"type":"LineString","coordinates":[[4.33986,50.84292],[4.339952,50.84266],[4.340103,50.84226]]},"properties":{"maxspeed":"50","name":"Boulevard du Midi - Zuidlaan","highway":"primary","oneway":"yes","profile":"pedestrian.shortcut","distance":"2936.016","time":"2642.415"}},{"type":"Feature","name":"ShapeMeta","geometry":{"type":"LineString","coordinates":[[4.340103,50.84226],[4.34045,50.84124]]},"properties":{"maxspeed":"50","name":"Boulevard du Midi - Zuidlaan","highway":"primary","oneway":"yes","profile":"pedestrian.shortcut","distance":"3052.216","time":"2746.995"}},{"type":"Feature","name":"ShapeMeta","geometry":{"type":"LineString","coordinates":[[4.34045,50.84124],[4.340559,50.841]]},"properties":{"maxspeed":"50","name":"Boulevard du Midi - Zuidlaan","highway":"primary","oneway":"yes","profile":"pedestrian.shortcut","distance":"3079.516","time":"2771.565"}},{"type":"Feature","name":"ShapeMeta","geometry":{"type":"LineString","coordinates":[[4.340559,50.841],[4.340819,50.84029]]},"properties":{"maxspeed":"50","name":"Boulevard du Midi - Zuidlaan","highway":"primary","oneway":"yes","profile":"pedestrian.shortcut","distance":"3160.416","time":"2844.375"}},{"type":"Feature","name":"ShapeMeta","geometry":{"type":"LineString","coordinates":[[4.340819,50.84029],[4.340864,50.84016]]},"properties":{"maxspeed":"50","name":"Boulevard du Midi - Zuidlaan","highway":"primary","oneway":"yes","profile":"pedestrian.shortcut","distance":"3175.516","time":"2857.965"}},{"type":"Feature","name":"ShapeMeta","geometry":{"type":"LineString","coordinates":[[4.340864,50.84016],[4.340886,50.84008]]},"properties":{"maxspeed":"50","name":"Boulevard du Midi - Zuidlaan","highway":"primary","oneway":"yes","profile":"pedestrian.shortcut","distance":"3184.516","time":"2866.065"}},{"type":"Feature","name":"ShapeMeta","geometry":{"type":"LineString","coordinates":[[4.340886,50.84008],[4.340913,50.83998]]},"properties":{"maxspeed":"50","name":"Boulevard du Midi - Zuidlaan","highway":"primary","oneway":"yes","profile":"pedestrian.shortcut","distance":"3195.616","time":"2876.055"}},{"type":"Feature","name":"ShapeMeta","geometry":{"type":"LineString","coordinates":[[4.340913,50.83998],[4.340936,50.83989]]},"properties":{"maxspeed":"50","name":"Boulevard du Midi - Zuidlaan","highway":"primary","oneway":"yes","profile":"pedestrian.shortcut","distance":"3205.416","time":"2884.875"}},{"type":"Feature","name":"ShapeMeta","geometry":{"type":"LineString","coordinates":[[4.340936,50.83989],[4.341074,50.8395],[4.341123,50.83936]]},"properties":{"maxspeed":"50","name":"Boulevard du Midi - Zuidlaan","highway":"primary","oneway":"yes","profile":"pedestrian.shortcut","distance":"3265.716","time":"2939.145"}},{"type":"Feature","name":"ShapeMeta","geometry":{"type":"LineString","coordinates":[[4.341123,50.83936],[4.341177,50.83923]]},"properties":{"maxspeed":"50","name":"Boulevard du Midi - Zuidlaan","highway":"primary","oneway":"yes","profile":"pedestrian.shortcut","distance":"3280.216","time":"2952.195"}},{"type":"Feature","name":"ShapeMeta","geometry":{"type":"LineString","coordinates":[[4.341177,50.83923],[4.341277,50.83892]]},"properties":{"maxspeed":"50","name":"Boulevard du Midi - Zuidlaan","highway":"primary","oneway":"yes","profile":"pedestrian.shortcut","distance":"3315.616","time":"2984.055"}},{"type":"Feature","name":"ShapeMeta","geometry":{"type":"LineString","coordinates":[[4.341277,50.83892],[4.341311,50.83867],[4.341311,50.83856],[4.341294,50.83845]]},"properties":{"maxspeed":"50","name":"Boulevard du Midi - Zuidlaan","highway":"primary","oneway":"yes","profile":"pedestrian.shortcut","distance":"3367.916","time":"3031.125"}},{"type":"Feature","name":"ShapeMeta","geometry":{"type":"LineString","coordinates":[[4.341294,50.83845],[4.34126,50.83827]]},"properties":{"maxspeed":"50","name":"Boulevard du Midi - Zuidlaan","highway":"primary","oneway":"yes","profile":"pedestrian.shortcut","distance":"3388.316","time":"3049.485"}},{"type":"Feature","name":"ShapeMeta","geometry":{"type":"LineString","coordinates":[[4.34126,50.83827],[4.340954,50.83807]]},"properties":{"name":"Place de la Constitution - Grondwetplein","highway":"primary","oneway":"yes","profile":"pedestrian.shortcut","distance":"3419.016","time":"3077.115"}},{"type":"Feature","name":"ShapeMeta","geometry":{"type":"LineString","coordinates":[[4.340954,50.83807],[4.340981,50.83803]]},"properties":{"maxspeed":"50","name":"Boulevard Poincaré - Poincarélaan","highway":"primary","oneway":"yes","profile":"pedestrian.shortcut","distance":"3423.616","time":"3081.255"}},{"type":"Feature","name":"ShapeMeta","geometry":{"type":"LineString","coordinates":[[4.340981,50.83803],[4.340982,50.83787],[4.341071,50.83764]]},"properties":{"maxspeed":"50","name":"Avenue de la Porte de Hal - Hallepoortlaan","highway":"primary","oneway":"yes","profile":"pedestrian.shortcut","distance":"3468.016","time":"3121.215"}},{"type":"Feature","name":"ShapeMeta","geometry":{"type":"LineString","coordinates":[[4.341071,50.83764],[4.341331,50.83696]]},"properties":{"maxspeed":"50","name":"Avenue de la Porte de Hal - Hallepoortlaan","highway":"primary","oneway":"yes","profile":"pedestrian.shortcut","distance":"3545.216","time":"3190.695"}},{"type":"Feature","name":"ShapeMeta","geometry":{"type":"LineString","coordinates":[[4.341331,50.83696],[4.341357,50.83688]]},"properties":{"maxspeed":"50","name":"Avenue de la Porte de Hal - Hallepoortlaan","highway":"primary","oneway":"yes","profile":"pedestrian.shortcut","distance":"3554.216","time":"3198.795"}},{"type":"Feature","name":"ShapeMeta","geometry":{"type":"LineString","coordinates":[[4.341357,50.83688],[4.341408,50.83673]]},"properties":{"maxspeed":"50","name":"Avenue de la Porte de Hal - Hallepoortlaan","highway":"primary","oneway":"yes","profile":"pedestrian.shortcut","distance":"3571.916","time":"3214.725"}},{"type":"Feature","name":"ShapeMeta","geometry":{"type":"LineString","coordinates":[[4.341408,50.83673],[4.341821,50.83561]]},"properties":{"maxspeed":"50","name":"Avenue de la Porte de Hal - Hallepoortlaan","highway":"primary","oneway":"yes","profile":"pedestrian.shortcut","distance":"3699.516","time":"3329.565"}},{"type":"Feature","name":"ShapeMeta","geometry":{"type":"LineString","coordinates":[[4.341821,50.83561],[4.341897,50.83533],[4.341953,50.83522]]},"properties":{"maxspeed":"50","name":"Avenue de la Porte de Hal - Hallepoortlaan","highway":"primary","oneway":"yes","profile":"pedestrian.shortcut","distance":"3744.216","time":"3369.795"}},{"type":"Feature","name":"ShapeMeta","geometry":{"type":"LineString","coordinates":[[4.341953,50.83522],[4.342303,50.83434]]},"properties":{"maxspeed":"50","name":"Avenue de la Porte de Hal - Hallepoortlaan","highway":"primary","oneway":"yes","profile":"pedestrian.shortcut","distance":"3844.316","time":"3459.885"}},{"type":"Feature","name":"ShapeMeta","geometry":{"type":"LineString","coordinates":[[4.342303,50.83434],[4.342285,50.83421]]},"properties":{"maxspeed":"50","name":"Avenue de la Porte de Hal - Hallepoortlaan","highway":"primary","oneway":"yes","profile":"pedestrian.shortcut","distance":"3858.716","time":"3472.845"}},{"type":"Feature","name":"ShapeMeta","geometry":{"type":"LineString","coordinates":[[4.342285,50.83421],[4.342247,50.83418]]},"properties":{"maxspeed":"50","name":"Avenue de la Porte de Hal - Hallepoortlaan","highway":"primary","oneway":"yes","cyclenetwork":"yes","profile":"pedestrian.shortcut","distance":"3863.716","time":"3477.345"}},{"type":"Feature","name":"ShapeMeta","geometry":{"type":"LineString","coordinates":[[4.342247,50.83418],[4.342254,50.83413]]},"properties":{"maxspeed":"50","name":"Avenue de la Porte de Hal - Hallepoortlaan","highway":"primary","oneway":"yes","cyclenetwork":"yes","profile":"pedestrian.shortcut","distance":"3868.816","time":"3481.935"}},{"type":"Feature","name":"ShapeMeta","geometry":{"type":"LineString","coordinates":[[4.342254,50.83413],[4.342223,50.83406],[4.342213,50.834],[4.342257,50.83387],[4.342382,50.83375],[4.342432,50.83372]]},"properties":{"maxspeed":"50","name":"Avenue de la Porte de Hal - Hallepoortlaan","highway":"primary","oneway":"yes","cyclenetwork":"yes","profile":"pedestrian.shortcut","distance":"3919.416","time":"3527.475"}},{"type":"Feature","name":"ShapeMeta","geometry":{"type":"LineString","coordinates":[[4.342432,50.83372],[4.34253,50.83361],[4.342593,50.83348]]},"properties":{"maxspeed":"50","name":"Avenue de la Porte de Hal - Hallepoortlaan","highway":"primary","oneway":"yes","cyclenetwork":"yes","profile":"pedestrian.shortcut","distance":"3948.216","time":"3553.395"}},{"type":"Feature","name":"ShapeMeta","geometry":{"type":"LineString","coordinates":[[4.342593,50.83348],[4.342745,50.83308]]},"properties":{"maxspeed":"50","name":"Avenue de la Porte de Hal - Hallepoortlaan","highway":"primary","oneway":"yes","cyclenetwork":"yes","profile":"pedestrian.shortcut","distance":"3994.016","time":"3594.615"}},{"type":"Feature","name":"ShapeMeta","geometry":{"type":"LineString","coordinates":[[4.342745,50.83308],[4.342811,50.83291]]},"properties":{"maxspeed":"50","name":"Avenue de la Porte de Hal - Hallepoortlaan","highway":"primary","oneway":"yes","cyclenetwork":"yes","profile":"pedestrian.shortcut","distance":"4013.616","time":"3612.255"}},{"type":"Feature","name":"ShapeMeta","geometry":{"type":"LineString","coordinates":[[4.342811,50.83291],[4.342892,50.83276]]},"properties":{"maxspeed":"50","name":"Avenue Jean Volders - Jean Volderslaan","highway":"tertiary","profile":"pedestrian.shortcut","distance":"4031.516","time":"3628.365"}},{"type":"Feature","name":"ShapeMeta","geometry":{"type":"LineString","coordinates":[[4.342892,50.83276],[4.342774,50.8327],[4.342012,50.83234],[4.341959,50.83231]]},"properties":{"maxspeed":"30","name":"Chaussée de Forest - Vorstse Steenweg","highway":"residential","oneway":"yes","profile":"pedestrian.shortcut","distance":"4113.416","time":"3702.075"}},{"type":"Feature","name":"ShapeMeta","geometry":{"type":"LineString","coordinates":[[4.341959,50.83231],[4.341136,50.83193]]},"properties":{"maxspeed":"30","name":"Chaussée de Forest - Vorstse Steenweg","highway":"residential","oneway":"yes","cyclenetwork":"yes","profile":"pedestrian.shortcut","distance":"4185.316","time":"3766.785"}},{"type":"Feature","name":"ShapeMeta","geometry":{"type":"LineString","coordinates":[[4.341136,50.83193],[4.340907,50.83182]]},"properties":{"maxspeed":"30","name":"Chaussée de Forest - Vorstse Steenweg","highway":"residential","oneway":"-1","profile":"pedestrian.shortcut","distance":"4205.216","time":"3784.695"}},{"type":"Feature","name":"ShapeMeta","geometry":{"type":"LineString","coordinates":[[4.340907,50.83182],[4.340031,50.83144]]},"properties":{"maxspeed":"30","name":"Chaussée de Forest - Vorstse Steenweg","highway":"residential","oneway":"-1","profile":"pedestrian.shortcut","distance":"4280.116","time":"3852.105"}},{"type":"Feature","name":"ShapeMeta","geometry":{"type":"LineString","coordinates":[[4.340031,50.83144],[4.339979,50.83141]]},"properties":{"maxspeed":"30","name":"Chaussée de Forest - Vorstse Steenweg","highway":"residential","oneway":"-1","profile":"pedestrian.shortcut","distance":"4284.616","time":"3856.155"}},{"type":"Feature","name":"Stop","Shape":"0","geometry":{"type":"Point","coordinates":[4.349701,50.8657]},"properties":{"distance":"0","time":"0"}},{"type":"Feature","name":"Stop","Shape":"131","geometry":{"type":"Point","coordinates":[4.339964,50.83144]},"properties":{"distance":"4284.616","time":"3856.155"}}]}